STARLINK-35781          
1 67110U 25299J   25359.83335647 -.01814287  00000+0 -99919-2 0  9996
2 67110  42.9967 236.3874 0001591 261.5956  54.0395 15.81607218  2868
STARLINK-35875          
1 67111U 25299K   25359.83335647 -.01817423  00000+0 -10013-1 0  9999
2 67111  42.9969 236.3922 0001662 260.6115  53.2769 15.81603136  2806
STARLINK-35906          
1 67112U 25299L   25359.83335647 -.01814345  00000+0 -99854-2 0  9991
2 67112  42.9968 236.3838 0001581 259.6868  57.4581 15.81621788  2806
STARLINK-35789          
1 67113U 25299M   25359.83335647 -.01812458  00000+0 -99691-2 0  9994
2 67113  42.9967 236.3795 0001649 260.4834  58.2622 15.81630472  2801
STARLINK-36180          
1 67114U 25299N   25359.83335647 -.01808517  00000+0 -99445-2 0  9993
2 67114  42.9969 236.3752 0001547 257.6465  62.9285 15.81631591  2914
STARLINK-35892          
1 67115U 25299P   25359.83335647 -.01823593  00000+0 -10030-1 0  9997
2 67115  42.9968 236.3711 0001616 259.0580  63.1380 15.81649457  2807
STARLINK-35738          
1 67116U 25299Q   25359.83335647 -.01816930  00000+0 -99883-2 0  9999
2 67116  42.9969 236.3664 0001715 261.7539  62.3174 15.81648525  2807
STARLINK-35674          
1 67117U 25299R   25359.83335647 -.01819117  00000+0 -99985-2 0  9993
2 67117  42.9970 236.3620 0001666 260.7079  65.0831 15.81656432  2700
STARLINK-35701          
1 67118U 25299S   25359.83335647 -.01824624  00000+0 -10030-1 0  9996
2 67118  42.9969 236.3577 0001704 268.4113  59.1398 15.81663489  2866
STARLINK-36179          
1 67119U 25299T   25359.83335647 -.01818819  00000+0 -99788-2 0  9994
2 67119  42.9966 236.3500 0001657 265.7019  64.7264 15.81694492  2910
STARLINK-36217          
1 67120U 25299U   25359.83335647 -.01819866  00000+0 -99940-2 0  9999
2 67120  42.9970 236.3538 0001709 263.8109  65.2648 15.81675553  2914
STARLINK-36124          
1 67121U 25299V   25359.83335647 -.01821353  00000+0 -99885-2 0  9992
2 67121  42.9966 236.3413 0001639 269.0000  64.9237 15.81707762  2910
