CCSDS_OMM_VERS = 2.0
CREATION_DATE  = 
ORIGINATOR     = 

OBJECT_NAME    = STARLINK-35781
OBJECT_ID      = 2025-299J
CENTER_NAME    = EARTH
REF_FRAME      = TEME
TIME_SYSTEM    = UTC
MEAN_ELEMENT_THEORY = SGP/SGP4

EPOCH          = 2025-12-25T20:00:01.999008
MEAN_MOTION    = 15.81607218
ECCENTRICITY   = .0001591
INCLINATION    = 42.9967
RA_OF_ASC_NODE = 236.3874
ARG_OF_PERICENTER = 261.5956
MEAN_ANOMALY   = 54.0395

EPHEMERIS_TYPE = 0
CLASSIFICATION_TYPE = U
NORAD_CAT_ID   = 67110
ELEMENT_SET_NO = 999
REV_AT_EPOCH   = 286
BSTAR          = -.99919E-2
MEAN_MOTION_DOT = -.1814287E-1
MEAN_MOTION_DDOT = 0

CCSDS_OMM_VERS = 2.0
CREATION_DATE  = 
ORIGINATOR     = 

OBJECT_NAME    = STARLINK-35875
OBJECT_ID      = 2025-299K
CENTER_NAME    = EARTH
REF_FRAME      = TEME
TIME_SYSTEM    = UTC
MEAN_ELEMENT_THEORY = SGP/SGP4

EPOCH          = 2025-12-25T20:00:01.999008
MEAN_MOTION    = 15.81603136
ECCENTRICITY   = .0001662
INCLINATION    = 42.9969
RA_OF_ASC_NODE = 236.3922
ARG_OF_PERICENTER = 260.6115
MEAN_ANOMALY   = 53.2769

EPHEMERIS_TYPE = 0
CLASSIFICATION_TYPE = U
NORAD_CAT_ID   = 67111
ELEMENT_SET_NO = 999
REV_AT_EPOCH   = 280
BSTAR          = -.10013E-1
MEAN_MOTION_DOT = -.1817423E-1
MEAN_MOTION_DDOT = 0

CCSDS_OMM_VERS = 2.0
CREATION_DATE  = 
ORIGINATOR     = 

OBJECT_NAME    = STARLINK-35906
OBJECT_ID      = 2025-299L
CENTER_NAME    = EARTH
REF_FRAME      = TEME
TIME_SYSTEM    = UTC
MEAN_ELEMENT_THEORY = SGP/SGP4

EPOCH          = 2025-12-25T20:00:01.999008
MEAN_MOTION    = 15.81621788
ECCENTRICITY   = .0001581
INCLINATION    = 42.9968
RA_OF_ASC_NODE = 236.3838
ARG_OF_PERICENTER = 259.6868
MEAN_ANOMALY   = 57.4581

EPHEMERIS_TYPE = 0
CLASSIFICATION_TYPE = U
NORAD_CAT_ID   = 67112
ELEMENT_SET_NO = 999
REV_AT_EPOCH   = 280
BSTAR          = -.99854E-2
MEAN_MOTION_DOT = -.1814345E-1
MEAN_MOTION_DDOT = 0

CCSDS_OMM_VERS = 2.0
CREATION_DATE  = 
ORIGINATOR     = 

OBJECT_NAME    = STARLINK-35789
OBJECT_ID      = 2025-299M
CENTER_NAME    = EARTH
REF_FRAME      = TEME
TIME_SYSTEM    = UTC
MEAN_ELEMENT_THEORY = SGP/SGP4

EPOCH          = 2025-12-25T20:00:01.999008
MEAN_MOTION    = 15.81630472
ECCENTRICITY   = .0001649
INCLINATION    = 42.9967
RA_OF_ASC_NODE = 236.3795
ARG_OF_PERICENTER = 260.4834
MEAN_ANOMALY   = 58.2622

EPHEMERIS_TYPE = 0
CLASSIFICATION_TYPE = U
NORAD_CAT_ID   = 67113
ELEMENT_SET_NO = 999
REV_AT_EPOCH   = 280
BSTAR          = -.99691E-2
MEAN_MOTION_DOT = -.1812458E-1
MEAN_MOTION_DDOT = 0

CCSDS_OMM_VERS = 2.0
CREATION_DATE  = 
ORIGINATOR     = 

OBJECT_NAME    = STARLINK-36180
OBJECT_ID      = 2025-299N
CENTER_NAME    = EARTH
REF_FRAME      = TEME
TIME_SYSTEM    = UTC
MEAN_ELEMENT_THEORY = SGP/SGP4

EPOCH          = 2025-12-25T20:00:01.999008
MEAN_MOTION    = 15.81631591
ECCENTRICITY   = .0001547
INCLINATION    = 42.9969
RA_OF_ASC_NODE = 236.3752
ARG_OF_PERICENTER = 257.6465
MEAN_ANOMALY   = 62.9285

EPHEMERIS_TYPE = 0
CLASSIFICATION_TYPE = U
NORAD_CAT_ID   = 67114
ELEMENT_SET_NO = 999
REV_AT_EPOCH   = 291
BSTAR          = -.99445E-2
MEAN_MOTION_DOT = -.1808517E-1
MEAN_MOTION_DDOT = 0

CCSDS_OMM_VERS = 2.0
CREATION_DATE  = 
ORIGINATOR     = 

OBJECT_NAME    = STARLINK-35892
OBJECT_ID      = 2025-299P
CENTER_NAME    = EARTH
REF_FRAME      = TEME
TIME_SYSTEM    = UTC
MEAN_ELEMENT_THEORY = SGP/SGP4

EPOCH          = 2025-12-25T20:00:01.999008
MEAN_MOTION    = 15.81649457
ECCENTRICITY   = .0001616
INCLINATION    = 42.9968
RA_OF_ASC_NODE = 236.3711
ARG_OF_PERICENTER = 259.0580
MEAN_ANOMALY   = 63.1380

EPHEMERIS_TYPE = 0
CLASSIFICATION_TYPE = U
NORAD_CAT_ID   = 67115
ELEMENT_SET_NO = 999
REV_AT_EPOCH   = 280
BSTAR          = -.1003E-1
MEAN_MOTION_DOT = -.1823593E-1
MEAN_MOTION_DDOT = 0

CCSDS_OMM_VERS = 2.0
CREATION_DATE  = 
ORIGINATOR     = 

OBJECT_NAME    = STARLINK-35738
OBJECT_ID      = 2025-299Q
CENTER_NAME    = EARTH
REF_FRAME      = TEME
TIME_SYSTEM    = UTC
MEAN_ELEMENT_THEORY = SGP/SGP4

EPOCH          = 2025-12-25T20:00:01.999008
MEAN_MOTION    = 15.81648525
ECCENTRICITY   = .0001715
INCLINATION    = 42.9969
RA_OF_ASC_NODE = 236.3664
ARG_OF_PERICENTER = 261.7539
MEAN_ANOMALY   = 62.3174

EPHEMERIS_TYPE = 0
CLASSIFICATION_TYPE = U
NORAD_CAT_ID   = 67116
ELEMENT_SET_NO = 999
REV_AT_EPOCH   = 280
BSTAR          = -.99883E-2
MEAN_MOTION_DOT = -.181693E-1
MEAN_MOTION_DDOT = 0

CCSDS_OMM_VERS = 2.0
CREATION_DATE  = 
ORIGINATOR     = 

OBJECT_NAME    = STARLINK-35674
OBJECT_ID      = 2025-299R
CENTER_NAME    = EARTH
REF_FRAME      = TEME
TIME_SYSTEM    = UTC
MEAN_ELEMENT_THEORY = SGP/SGP4

EPOCH          = 2025-12-25T20:00:01.999008
MEAN_MOTION    = 15.81656432
ECCENTRICITY   = .0001666
INCLINATION    = 42.9970
RA_OF_ASC_NODE = 236.3620
ARG_OF_PERICENTER = 260.7079
MEAN_ANOMALY   = 65.0831

EPHEMERIS_TYPE = 0
CLASSIFICATION_TYPE = U
NORAD_CAT_ID   = 67117
ELEMENT_SET_NO = 999
REV_AT_EPOCH   = 270
BSTAR          = -.99985E-2
MEAN_MOTION_DOT = -.1819117E-1
MEAN_MOTION_DDOT = 0

CCSDS_OMM_VERS = 2.0
CREATION_DATE  = 
ORIGINATOR     = 

OBJECT_NAME    = STARLINK-35701
OBJECT_ID      = 2025-299S
CENTER_NAME    = EARTH
REF_FRAME      = TEME
TIME_SYSTEM    = UTC
MEAN_ELEMENT_THEORY = SGP/SGP4

EPOCH          = 2025-12-25T20:00:01.999008
MEAN_MOTION    = 15.81663489
ECCENTRICITY   = .0001704
INCLINATION    = 42.9969
RA_OF_ASC_NODE = 236.3577
ARG_OF_PERICENTER = 268.4113
MEAN_ANOMALY   = 59.1398

EPHEMERIS_TYPE = 0
CLASSIFICATION_TYPE = U
NORAD_CAT_ID   = 67118
ELEMENT_SET_NO = 999
REV_AT_EPOCH   = 286
BSTAR          = -.1003E-1
MEAN_MOTION_DOT = -.1824624E-1
MEAN_MOTION_DDOT = 0

CCSDS_OMM_VERS = 2.0
CREATION_DATE  = 
ORIGINATOR     = 

OBJECT_NAME    = STARLINK-36179
OBJECT_ID      = 2025-299T
CENTER_NAME    = EARTH
REF_FRAME      = TEME
TIME_SYSTEM    = UTC
MEAN_ELEMENT_THEORY = SGP/SGP4

EPOCH          = 2025-12-25T20:00:01.999008
MEAN_MOTION    = 15.81694492
ECCENTRICITY   = .0001657
INCLINATION    = 42.9966
RA_OF_ASC_NODE = 236.3500
ARG_OF_PERICENTER = 265.7019
MEAN_ANOMALY   = 64.7264

EPHEMERIS_TYPE = 0
CLASSIFICATION_TYPE = U
NORAD_CAT_ID   = 67119
ELEMENT_SET_NO = 999
REV_AT_EPOCH   = 291
BSTAR          = -.99788E-2
MEAN_MOTION_DOT = -.1818819E-1
MEAN_MOTION_DDOT = 0

CCSDS_OMM_VERS = 2.0
CREATION_DATE  = 
ORIGINATOR     = 

OBJECT_NAME    = STARLINK-36217
OBJECT_ID      = 2025-299U
CENTER_NAME    = EARTH
REF_FRAME      = TEME
TIME_SYSTEM    = UTC
MEAN_ELEMENT_THEORY = SGP/SGP4

EPOCH          = 2025-12-25T20:00:01.999008
MEAN_MOTION    = 15.81675553
ECCENTRICITY   = .0001709
INCLINATION    = 42.9970
RA_OF_ASC_NODE = 236.3538
ARG_OF_PERICENTER = 263.8109
MEAN_ANOMALY   = 65.2648

EPHEMERIS_TYPE = 0
CLASSIFICATION_TYPE = U
NORAD_CAT_ID   = 67120
ELEMENT_SET_NO = 999
REV_AT_EPOCH   = 291
BSTAR          = -.9994E-2
MEAN_MOTION_DOT = -.1819866E-1
MEAN_MOTION_DDOT = 0

CCSDS_OMM_VERS = 2.0
CREATION_DATE  = 
ORIGINATOR     = 

OBJECT_NAME    = STARLINK-36124
OBJECT_ID      = 2025-299V
CENTER_NAME    = EARTH
REF_FRAME      = TEME
TIME_SYSTEM    = UTC
MEAN_ELEMENT_THEORY = SGP/SGP4

EPOCH          = 2025-12-25T20:00:01.999008
MEAN_MOTION    = 15.81707762
ECCENTRICITY   = .0001639
INCLINATION    = 42.9966
RA_OF_ASC_NODE = 236.3413
ARG_OF_PERICENTER = 269.0000
MEAN_ANOMALY   = 64.9237

EPHEMERIS_TYPE = 0
CLASSIFICATION_TYPE = U
NORAD_CAT_ID   = 67121
ELEMENT_SET_NO = 999
REV_AT_EPOCH   = 291
BSTAR          = -.99885E-2
MEAN_MOTION_DOT = -.1821353E-1
MEAN_MOTION_DDOT = 0

